CCSDS_OMM_VERS = 2.0
CREATION_DATE  = 
ORIGINATOR     = 

OBJECT_NAME    = SILVERSAT
OBJECT_ID      = 1998-067XV
CENTER_NAME    = EARTH
REF_FRAME      = TEME
TIME_SYSTEM    = UTC
MEAN_ELEMENT_THEORY = SGP/SGP4

EPOCH          = 2026-02-07T11:33:07.497792
MEAN_MOTION    = 15.62750268
ECCENTRICITY   = .0002552
INCLINATION    = 51.6271
RA_OF_ASC_NODE = 218.4396
ARG_OF_PERICENTER = 229.2815
MEAN_ANOMALY   = 130.7958

EPHEMERIS_TYPE = 0
CLASSIFICATION_TYPE = U
NORAD_CAT_ID   = 66909
ELEMENT_SET_NO = 999
REV_AT_EPOCH   = 1045
BSTAR          = .17343E-2
MEAN_MOTION_DOT = .161676E-2
MEAN_MOTION_DDOT = 0

CCSDS_OMM_VERS = 2.0
CREATION_DATE  = 
ORIGINATOR     = 

OBJECT_NAME    = ISS OBJECT XW
OBJECT_ID      = 1998-067XW
CENTER_NAME    = EARTH
REF_FRAME      = TEME
TIME_SYSTEM    = UTC
MEAN_ELEMENT_THEORY = SGP/SGP4

EPOCH          = 2026-02-06T17:27:41.102784
MEAN_MOTION    = 15.61211268
ECCENTRICITY   = .00009584
INCLINATION    = 51.6257
RA_OF_ASC_NODE = 222.4006
ARG_OF_PERICENTER = 240.3067
MEAN_ANOMALY   = 119.7831

EPHEMERIS_TYPE = 0
CLASSIFICATION_TYPE = U
NORAD_CAT_ID   = 66910
ELEMENT_SET_NO = 999
REV_AT_EPOCH   = 1033
BSTAR          = .13119254E-2
MEAN_MOTION_DOT = .114383E-2
MEAN_MOTION_DDOT = 0

CCSDS_OMM_VERS = 2.0
CREATION_DATE  = 
ORIGINATOR     = 

OBJECT_NAME    = ISS OBJECT XX
OBJECT_ID      = 1998-067XX
CENTER_NAME    = EARTH
REF_FRAME      = TEME
TIME_SYSTEM    = UTC
MEAN_ELEMENT_THEORY = SGP/SGP4

EPOCH          = 2026-02-06T17:59:20.753664
MEAN_MOTION    = 15.63735398
ECCENTRICITY   = .0002423
INCLINATION    = 51.6250
RA_OF_ASC_NODE = 221.7970
ARG_OF_PERICENTER = 254.7739
MEAN_ANOMALY   = 105.2988

EPHEMERIS_TYPE = 0
CLASSIFICATION_TYPE = U
NORAD_CAT_ID   = 66911
ELEMENT_SET_NO = 999
REV_AT_EPOCH   = 1033
BSTAR          = .15986426E-2
MEAN_MOTION_DOT = .154731E-2
MEAN_MOTION_DDOT = 0

CCSDS_OMM_VERS = 2.0
CREATION_DATE  = 
ORIGINATOR     = 

OBJECT_NAME    = ISS OBJECT XY
OBJECT_ID      = 1998-067XY
CENTER_NAME    = EARTH
REF_FRAME      = TEME
TIME_SYSTEM    = UTC
MEAN_ELEMENT_THEORY = SGP/SGP4

EPOCH          = 2026-02-07T11:48:29.801376
MEAN_MOTION    = 15.58567239
ECCENTRICITY   = .0001119
INCLINATION    = 51.6282
RA_OF_ASC_NODE = 219.2626
ARG_OF_PERICENTER = 161.1968
MEAN_ANOMALY   = 198.9066

EPHEMERIS_TYPE = 0
CLASSIFICATION_TYPE = U
NORAD_CAT_ID   = 66912
ELEMENT_SET_NO = 999
REV_AT_EPOCH   = 1043
BSTAR          = .12349E-2
MEAN_MOTION_DOT = .97064E-3
MEAN_MOTION_DDOT = 0

CCSDS_OMM_VERS = 2.0
CREATION_DATE  = 
ORIGINATOR     = 

OBJECT_NAME    = ISS OBJECT XZ
OBJECT_ID      = 1998-067XZ
CENTER_NAME    = EARTH
REF_FRAME      = TEME
TIME_SYSTEM    = UTC
MEAN_ELEMENT_THEORY = SGP/SGP4

EPOCH          = 2026-02-07T12:01:00.490368
MEAN_MOTION    = 15.49390412
ECCENTRICITY   = .0011048
INCLINATION    = 51.6308
RA_OF_ASC_NODE = 221.5665
ARG_OF_PERICENTER = 89.7127
MEAN_ANOMALY   = 270.5127

EPHEMERIS_TYPE = 0
CLASSIFICATION_TYPE = U
NORAD_CAT_ID   = 67683
ELEMENT_SET_NO = 999
REV_AT_EPOCH   = 10
BSTAR          = .85613E-3
MEAN_MOTION_DOT = .47759E-3
MEAN_MOTION_DDOT = 0

CCSDS_OMM_VERS = 2.0
CREATION_DATE  = 
ORIGINATOR     = 

OBJECT_NAME    = ISS OBJECT YA
OBJECT_ID      = 1998-067YA
CENTER_NAME    = EARTH
REF_FRAME      = TEME
TIME_SYSTEM    = UTC
MEAN_ELEMENT_THEORY = SGP/SGP4

EPOCH          = 2026-02-07T12:00:03.070656
MEAN_MOTION    = 15.49772232
ECCENTRICITY   = .0013092
INCLINATION    = 51.6310
RA_OF_ASC_NODE = 221.5638
ARG_OF_PERICENTER = 85.3327
MEAN_ANOMALY   = 274.9157

EPHEMERIS_TYPE = 0
CLASSIFICATION_TYPE = U
NORAD_CAT_ID   = 67684
ELEMENT_SET_NO = 999
REV_AT_EPOCH   = 10
BSTAR          = .15593E-2
MEAN_MOTION_DOT = .891E-3
MEAN_MOTION_DDOT = 0

CCSDS_OMM_VERS = 2.0
CREATION_DATE  = 
ORIGINATOR     = 

OBJECT_NAME    = ISS OBJECT YB
OBJECT_ID      = 1998-067YB
CENTER_NAME    = EARTH
REF_FRAME      = TEME
TIME_SYSTEM    = UTC
MEAN_ELEMENT_THEORY = SGP/SGP4

EPOCH          = 2026-02-06T22:04:58.877760
MEAN_MOTION    = 15.49395303
ECCENTRICITY   = .00078643
INCLINATION    = 51.6312
RA_OF_ASC_NODE = 224.4405
ARG_OF_PERICENTER = 62.7877
MEAN_ANOMALY   = 297.3912

EPHEMERIS_TYPE = 0
CLASSIFICATION_TYPE = U
NORAD_CAT_ID   = 67685
ELEMENT_SET_NO = 999
REV_AT_EPOCH   = 54
BSTAR          = .85681713E-3
MEAN_MOTION_DOT = .47751E-3
MEAN_MOTION_DDOT = 0

CCSDS_OMM_VERS = 2.0
CREATION_DATE  = 
ORIGINATOR     = 

OBJECT_NAME    = ISS OBJECT YC
OBJECT_ID      = 1998-067YC
CENTER_NAME    = EARTH
REF_FRAME      = TEME
TIME_SYSTEM    = UTC
MEAN_ELEMENT_THEORY = SGP/SGP4

EPOCH          = 2026-02-06T23:37:41.671776
MEAN_MOTION    = 15.49469854
ECCENTRICITY   = .0007735
INCLINATION    = 51.6314
RA_OF_ASC_NODE = 224.1206
ARG_OF_PERICENTER = 62.2284
MEAN_ANOMALY   = 297.9488

EPHEMERIS_TYPE = 0
CLASSIFICATION_TYPE = U
NORAD_CAT_ID   = 67686
ELEMENT_SET_NO = 999
REV_AT_EPOCH   = 2
BSTAR          = .93889E-3
MEAN_MOTION_DOT = .52538E-3
MEAN_MOTION_DDOT = 0

CCSDS_OMM_VERS = 2.0
CREATION_DATE  = 
ORIGINATOR     = 

OBJECT_NAME    = ISS OBJECT YD
OBJECT_ID      = 1998-067YD
CENTER_NAME    = EARTH
REF_FRAME      = TEME
TIME_SYSTEM    = UTC
MEAN_ELEMENT_THEORY = SGP/SGP4

EPOCH          = 2026-02-07T10:27:59.878944
MEAN_MOTION    = 15.49440924
ECCENTRICITY   = .000786
INCLINATION    = 51.6313
RA_OF_ASC_NODE = 221.8860
ARG_OF_PERICENTER = 64.4814
MEAN_ANOMALY   = 295.6987

EPHEMERIS_TYPE = 0
CLASSIFICATION_TYPE = U
NORAD_CAT_ID   = 67687
ELEMENT_SET_NO = 999
REV_AT_EPOCH   = 1
BSTAR          = .89722E-3
MEAN_MOTION_DOT = .50121E-3
MEAN_MOTION_DDOT = 0

CCSDS_OMM_VERS = 2.0
CREATION_DATE  = 
ORIGINATOR     = 

OBJECT_NAME    = ISS OBJECT YE
OBJECT_ID      = 1998-067YE
CENTER_NAME    = EARTH
REF_FRAME      = TEME
TIME_SYSTEM    = UTC
MEAN_ELEMENT_THEORY = SGP/SGP4

EPOCH          = 2026-02-07T12:00:40.453344
MEAN_MOTION    = 15.49521333
ECCENTRICITY   = .000782
INCLINATION    = 51.6319
RA_OF_ASC_NODE = 221.5673
ARG_OF_PERICENTER = 63.4512
MEAN_ANOMALY   = 296.7277

EPHEMERIS_TYPE = 0
CLASSIFICATION_TYPE = U
NORAD_CAT_ID   = 67688
ELEMENT_SET_NO = 999
REV_AT_EPOCH   = 2
BSTAR          = .10498E-2
MEAN_MOTION_DOT = .58954E-3
MEAN_MOTION_DDOT = 0

